ONEWEB-0628             
1 55169U 23004AF  25365.14961369 -.00000089  00000+0 -28353-3 0  9997
2 55169  87.8925  24.0235 0002406 104.4695 255.6701 13.12445420145994
ONEWEB-0629             
1 55170U 23004AG  25365.14270096  .00000023  00000+0  26148-4 0  9996
2 55170  87.9092  39.2851 0002144  94.7896 265.3480 13.17649449145452
ONEWEB-0631             
1 55171U 23004AH  25365.03468119  .00000050  00000+0  94738-4 0  9990
2 55171  87.9174   8.8231 0001290 103.0822 257.0454 13.18683653147516
ONEWEB-0709             
1 55172U 23004AJ  25365.12256093  .00000372  00000+0  10125-2 0  9990
2 55172  87.8837  54.5500 0000854  93.8192 266.3033 13.11417142143849
ONEWEB-0710             
1 55173U 23004AK  25365.08110933  .00000047  00000+0  87589-4 0  9997
2 55173  87.9090  39.2916 0001790 100.8667 259.2666 13.17648654145440
ONEWEB-0711             
1 55174U 23004AL  25365.09373882 -.00000083  00000+0 -27071-3 0  9994
2 55174  87.8854  54.5319 0002231 118.7911 241.3441 13.11419507143804
ONEWEB-0713             
1 55175U 23004AM  25365.11238534  .00000011  00000+0 -57809-5 0  9996
2 55175  87.8841  54.5292 0002024 112.0455 248.0888 13.11418110143797
ONEWEB-0715             
1 55176U 23004AN  25365.10729444 -.00000176  00000+0 -53344-3 0  9992
2 55176  87.8843  54.5308 0001149 115.5966 244.5280 13.11417772143835
